{
    "links": {
        "self": "http://www.neowsapp.com/rest/v1/neo/3754329?api_key=iIulBulltgU6a56xZRHN4H3l9WmuAYTsLGpBGhQ2"
    },
    "id": "3754329",
    "neo_reference_id": "3754329",
    "name": "(2016 MJ)",
    "designation": "2016 MJ",
    "nasa_jpl_url": "http://ssd.jpl.nasa.gov/sbdb.cgi?sstr=3754329",
    "absolute_magnitude_h": 21.6,
    "estimated_diameter": {
        "kilometers": {
            "estimated_diameter_min": 0.1272198785,
            "estimated_diameter_max": 0.2844722965
        },
        "meters": {
            "estimated_diameter_min": 127.2198785394,
            "estimated_diameter_max": 284.4722965033
        },
        "miles": {
            "estimated_diameter_min": 0.0790507431,
            "estimated_diameter_max": 0.1767628354
        },
        "feet": {
            "estimated_diameter_min": 417.3880663071,
            "estimated_diameter_max": 933.3080892598
        }
    },
    "is_potentially_hazardous_asteroid": false,
    "close_approach_data": [
        {
            "close_approach_date": "2016-06-25",
            "close_approach_date_full": "2016-Jun-25 13:32",
            "epoch_date_close_approach": 1466861520000,
            "relative_velocity": {
                "kilometers_per_second": "25.4262637684",
                "kilometers_per_hour": "91534.5495661982",
                "miles_per_hour": "56876.009423508"
            },
            "miss_distance": {
                "astronomical": "0.159838044",
                "lunar": "62.176999116",
                "kilometers": "23911430.92736628",
                "miles": "14857874.209483464"
            },
            "orbiting_body": "Earth"
        }
    ],
    "orbital_data": {
        "orbit_id": "11",
        "orbit_determination_date": "2018-02-12 08:41:04",
        "first_observation_date": "2016-06-19",
        "last_observation_date": "2016-07-10",
        "data_arc_in_days": 21,
        "observations_used": 64,
        "orbit_uncertainty": "8",
        "minimum_orbit_intersection": ".102678",
        "jupiter_tisserand_invariant": "3.650",
        "epoch_osculation": "2457572.5",
        "eccentricity": ".4908784598387586",
        "semi_major_axis": "1.815804364595476",
        "inclination": "40.38498814284078",
        "ascending_node_longitude": "93.01831846611343",
        "orbital_period": "893.7210979113665",
        "perihelion_distance": ".924465114734353",
        "perihelion_argument": "115.9261401431489",
        "aphelion_distance": "2.707143614456598",
        "perihelion_time": "2457517.676510534963",
        "mean_anomaly": "22.08346233913195",
        "mean_motion": ".402810228874895",
        "equinox": "J2000",
        "orbit_class": {
            "orbit_class_type": "APO",
            "orbit_class_description": "Near-Earth asteroid orbits which cross the Earth’s orbit similar to that of 1862 Apollo",
            "orbit_class_range": "a (semi-major axis) > 1.0 AU; q (perihelion) < 1.017 AU"
        }
    },
    "is_sentry_object": false
}